XRISM                   
1 57800U 23137A   26072.93296189  .00006106  00000+0  34552-3 0  9994
2 57800  31.0009 256.2169 0007932  81.2969 278.8568 15.11550993138434
ACS3                    
1 59588U 24077B   26072.31396019  .00014774  00000+0  11847-1 0  9998
2 59588  97.2045  12.6111 0062790  67.8385 292.9427 13.89761996 94701
SZ-21 MODULE            
1 66515U 25246C   26072.57488950  .00042463  00000+0  36005-3 0  9990
2 66515  41.4731 179.4377 0001010 309.0341  51.0410 15.68874146 18689
